<?xml version="1.0" encoding="UTF-8"?>
<gpx version="1.1" creator="Tout Terrain Club" xmlns="http://www.topografix.com/GPX/1/1">
  <trk><name>L'expédition · J2 — Madone → Gelas → Relais des Merveilles</name><trkseg>
    <trkpt lat="44.09581" lon="7.35626"><ele>1911.6</ele></trkpt>
    <trkpt lat="44.09578" lon="7.35614"><ele>1911.8</ele></trkpt>
    <trkpt lat="44.09573" lon="7.35608"><ele>1912.1</ele></trkpt>
    <trkpt lat="44.09585" lon="7.35611"><ele>1914.2</ele></trkpt>
    <trkpt lat="44.09588" lon="7.3562"><ele>1914.2</ele></trkpt>
    <trkpt lat="44.09601" lon="7.35637"><ele>1918.7</ele></trkpt>
    <trkpt lat="44.09616" lon="7.35686"><ele>1924.0</ele></trkpt>
    <trkpt lat="44.09632" lon="7.3572"><ele>1933.1</ele></trkpt>
    <trkpt lat="44.09638" lon="7.35748"><ele>1935.0</ele></trkpt>
    <trkpt lat="44.09643" lon="7.35758"><ele>1937.6</ele></trkpt>
    <trkpt lat="44.0965" lon="7.35742"><ele>1940.1</ele></trkpt>
    <trkpt lat="44.09646" lon="7.35726"><ele>1942.4</ele></trkpt>
    <trkpt lat="44.09647" lon="7.35718"><ele>1942.4</ele></trkpt>
    <trkpt lat="44.0967" lon="7.35688"><ele>1947.9</ele></trkpt>
    <trkpt lat="44.09673" lon="7.35687"><ele>1947.9</ele></trkpt>
    <trkpt lat="44.09702" lon="7.35698"><ele>1954.0</ele></trkpt>
    <trkpt lat="44.09705" lon="7.35703"><ele>1954.0</ele></trkpt>
    <trkpt lat="44.09704" lon="7.35722"><ele>1955.3</ele></trkpt>
    <trkpt lat="44.09712" lon="7.35742"><ele>1959.2</ele></trkpt>
    <trkpt lat="44.09725" lon="7.35766"><ele>1960.2</ele></trkpt>
    <trkpt lat="44.09729" lon="7.3577"><ele>1961.2</ele></trkpt>
    <trkpt lat="44.09734" lon="7.35778"><ele>1962.5</ele></trkpt>
    <trkpt lat="44.0974" lon="7.35805"><ele>1965.5</ele></trkpt>
    <trkpt lat="44.09746" lon="7.35816"><ele>1968.2</ele></trkpt>
    <trkpt lat="44.09751" lon="7.35821"><ele>1969.2</ele></trkpt>
    <trkpt lat="44.09762" lon="7.35824"><ele>1973.5</ele></trkpt>
    <trkpt lat="44.09773" lon="7.3583"><ele>1975.5</ele></trkpt>
    <trkpt lat="44.09779" lon="7.35831"><ele>1975.5</ele></trkpt>
    <trkpt lat="44.09774" lon="7.35814"><ele>1977.3</ele></trkpt>
    <trkpt lat="44.09774" lon="7.35809"><ele>1979.9</ele></trkpt>
    <trkpt lat="44.09783" lon="7.358"><ele>1979.9</ele></trkpt>
    <trkpt lat="44.09786" lon="7.35801"><ele>1983.8</ele></trkpt>
    <trkpt lat="44.09794" lon="7.35811"><ele>1984.7</ele></trkpt>
    <trkpt lat="44.09816" lon="7.35849"><ele>1989.4</ele></trkpt>
    <trkpt lat="44.09839" lon="7.35865"><ele>1993.6</ele></trkpt>
    <trkpt lat="44.09841" lon="7.35865"><ele>1994.4</ele></trkpt>
    <trkpt lat="44.09842" lon="7.35861"><ele>1995.1</ele></trkpt>
    <trkpt lat="44.09834" lon="7.35844"><ele>1996.8</ele></trkpt>
    <trkpt lat="44.09829" lon="7.35819"><ele>1999.5</ele></trkpt>
    <trkpt lat="44.09832" lon="7.35815"><ele>1999.5</ele></trkpt>
    <trkpt lat="44.09851" lon="7.35835"><ele>2004.2</ele></trkpt>
    <trkpt lat="44.09873" lon="7.35853"><ele>2008.9</ele></trkpt>
    <trkpt lat="44.09877" lon="7.35861"><ele>2009.6</ele></trkpt>
    <trkpt lat="44.09876" lon="7.35875"><ele>2011.0</ele></trkpt>
    <trkpt lat="44.09862" lon="7.35904"><ele>2015.3</ele></trkpt>
    <trkpt lat="44.09859" lon="7.35931"><ele>2017.9</ele></trkpt>
    <trkpt lat="44.09874" lon="7.35955"><ele>2019.5</ele></trkpt>
    <trkpt lat="44.09882" lon="7.35959"><ele>2021.9</ele></trkpt>
    <trkpt lat="44.09892" lon="7.3596"><ele>2023.5</ele></trkpt>
    <trkpt lat="44.09932" lon="7.35982"><ele>2030.5</ele></trkpt>
    <trkpt lat="44.09951" lon="7.35995"><ele>2032.1</ele></trkpt>
    <trkpt lat="44.09982" lon="7.36003"><ele>2036.0</ele></trkpt>
    <trkpt lat="44.09994" lon="7.36015"><ele>2039.0</ele></trkpt>
    <trkpt lat="44.10011" lon="7.36015"><ele>2042.1</ele></trkpt>
    <trkpt lat="44.10018" lon="7.3602"><ele>2042.1</ele></trkpt>
    <trkpt lat="44.10032" lon="7.36021"><ele>2044.2</ele></trkpt>
    <trkpt lat="44.10041" lon="7.36024"><ele>2046.3</ele></trkpt>
    <trkpt lat="44.10056" lon="7.36023"><ele>2047.4</ele></trkpt>
    <trkpt lat="44.1006" lon="7.36021"><ele>2048.1</ele></trkpt>
    <trkpt lat="44.10058" lon="7.36014"><ele>2048.9</ele></trkpt>
    <trkpt lat="44.10058" lon="7.36"><ele>2049.8</ele></trkpt>
    <trkpt lat="44.10061" lon="7.35998"><ele>2052.6</ele></trkpt>
    <trkpt lat="44.10066" lon="7.36003"><ele>2052.6</ele></trkpt>
    <trkpt lat="44.10076" lon="7.36003"><ele>2055.3</ele></trkpt>
    <trkpt lat="44.10091" lon="7.36011"><ele>2058.5</ele></trkpt>
    <trkpt lat="44.10097" lon="7.36011"><ele>2061.9</ele></trkpt>
    <trkpt lat="44.10101" lon="7.36007"><ele>2061.9</ele></trkpt>
    <trkpt lat="44.10104" lon="7.35993"><ele>2064.0</ele></trkpt>
    <trkpt lat="44.10112" lon="7.35984"><ele>2066.5</ele></trkpt>
    <trkpt lat="44.10121" lon="7.35985"><ele>2068.0</ele></trkpt>
    <trkpt lat="44.10127" lon="7.35981"><ele>2068.0</ele></trkpt>
    <trkpt lat="44.10132" lon="7.35986"><ele>2069.4</ele></trkpt>
    <trkpt lat="44.10156" lon="7.35984"><ele>2071.9</ele></trkpt>
    <trkpt lat="44.10166" lon="7.35977"><ele>2072.2</ele></trkpt>
    <trkpt lat="44.10188" lon="7.35956"><ele>2072.0</ele></trkpt>
    <trkpt lat="44.10194" lon="7.35958"><ele>2072.0</ele></trkpt>
    <trkpt lat="44.102" lon="7.35966"><ele>2072.1</ele></trkpt>
    <trkpt lat="44.10202" lon="7.35977"><ele>2072.7</ele></trkpt>
    <trkpt lat="44.10211" lon="7.35985"><ele>2074.4</ele></trkpt>
    <trkpt lat="44.10213" lon="7.36007"><ele>2077.2</ele></trkpt>
    <trkpt lat="44.10211" lon="7.36018"><ele>2080.6</ele></trkpt>
    <trkpt lat="44.10223" lon="7.36041"><ele>2084.5</ele></trkpt>
    <trkpt lat="44.1024" lon="7.36062"><ele>2087.1</ele></trkpt>
    <trkpt lat="44.10259" lon="7.36069"><ele>2089.3</ele></trkpt>
    <trkpt lat="44.10269" lon="7.36079"><ele>2091.1</ele></trkpt>
    <trkpt lat="44.10291" lon="7.36091"><ele>2095.5</ele></trkpt>
    <trkpt lat="44.10304" lon="7.36107"><ele>2098.5</ele></trkpt>
    <trkpt lat="44.10315" lon="7.36149"><ele>2102.5</ele></trkpt>
    <trkpt lat="44.10326" lon="7.36136"><ele>2106.7</ele></trkpt>
    <trkpt lat="44.10328" lon="7.36136"><ele>2107.6</ele></trkpt>
    <trkpt lat="44.10332" lon="7.36156"><ele>2109.1</ele></trkpt>
    <trkpt lat="44.10335" lon="7.36156"><ele>2110.9</ele></trkpt>
    <trkpt lat="44.1034" lon="7.3615"><ele>2110.9</ele></trkpt>
    <trkpt lat="44.10343" lon="7.36149"><ele>2111.6</ele></trkpt>
    <trkpt lat="44.10346" lon="7.36161"><ele>2111.6</ele></trkpt>
    <trkpt lat="44.10349" lon="7.36162"><ele>2114.4</ele></trkpt>
    <trkpt lat="44.10356" lon="7.36151"><ele>2115.1</ele></trkpt>
    <trkpt lat="44.10359" lon="7.3615"><ele>2115.1</ele></trkpt>
    <trkpt lat="44.10364" lon="7.36153"><ele>2117.0</ele></trkpt>
    <trkpt lat="44.10367" lon="7.36159"><ele>2117.0</ele></trkpt>
    <trkpt lat="44.10367" lon="7.36169"><ele>2117.7</ele></trkpt>
    <trkpt lat="44.10388" lon="7.36147"><ele>2123.0</ele></trkpt>
    <trkpt lat="44.10394" lon="7.36143"><ele>2123.0</ele></trkpt>
    <trkpt lat="44.10405" lon="7.3614"><ele>2126.7</ele></trkpt>
    <trkpt lat="44.10408" lon="7.36141"><ele>2126.7</ele></trkpt>
    <trkpt lat="44.1041" lon="7.36144"><ele>2127.5</ele></trkpt>
    <trkpt lat="44.10414" lon="7.36163"><ele>2128.8</ele></trkpt>
    <trkpt lat="44.10406" lon="7.36189"><ele>2132.3</ele></trkpt>
    <trkpt lat="44.10405" lon="7.36197"><ele>2133.0</ele></trkpt>
    <trkpt lat="44.10407" lon="7.36206"><ele>2133.7</ele></trkpt>
    <trkpt lat="44.10412" lon="7.36212"><ele>2134.5</ele></trkpt>
    <trkpt lat="44.10416" lon="7.36212"><ele>2136.1</ele></trkpt>
    <trkpt lat="44.10437" lon="7.36195"><ele>2141.5</ele></trkpt>
    <trkpt lat="44.1044" lon="7.36198"><ele>2141.5</ele></trkpt>
    <trkpt lat="44.10442" lon="7.3621"><ele>2145.4</ele></trkpt>
    <trkpt lat="44.10452" lon="7.36221"><ele>2145.4</ele></trkpt>
    <trkpt lat="44.10453" lon="7.36209"><ele>2148.4</ele></trkpt>
    <trkpt lat="44.1046" lon="7.36195"><ele>2151.3</ele></trkpt>
    <trkpt lat="44.10462" lon="7.36193"><ele>2151.3</ele></trkpt>
    <trkpt lat="44.10467" lon="7.36199"><ele>2152.3</ele></trkpt>
    <trkpt lat="44.10475" lon="7.36185"><ele>2156.5</ele></trkpt>
    <trkpt lat="44.10477" lon="7.36189"><ele>2157.5</ele></trkpt>
    <trkpt lat="44.1048" lon="7.36208"><ele>2160.1</ele></trkpt>
    <trkpt lat="44.10487" lon="7.36227"><ele>2162.1</ele></trkpt>
    <trkpt lat="44.105" lon="7.36234"><ele>2164.9</ele></trkpt>
    <trkpt lat="44.10537" lon="7.3624"><ele>2169.6</ele></trkpt>
    <trkpt lat="44.10539" lon="7.36239"><ele>2169.6</ele></trkpt>
    <trkpt lat="44.10535" lon="7.36229"><ele>2171.2</ele></trkpt>
    <trkpt lat="44.1052" lon="7.36219"><ele>2175.0</ele></trkpt>
    <trkpt lat="44.10514" lon="7.36212"><ele>2175.8</ele></trkpt>
    <trkpt lat="44.10513" lon="7.36202"><ele>2178.0</ele></trkpt>
    <trkpt lat="44.10516" lon="7.36194"><ele>2178.0</ele></trkpt>
    <trkpt lat="44.10522" lon="7.36192"><ele>2180.6</ele></trkpt>
    <trkpt lat="44.10534" lon="7.36198"><ele>2182.0</ele></trkpt>
    <trkpt lat="44.10541" lon="7.36198"><ele>2183.6</ele></trkpt>
    <trkpt lat="44.10594" lon="7.36169"><ele>2193.9</ele></trkpt>
    <trkpt lat="44.10616" lon="7.3616"><ele>2195.7</ele></trkpt>
    <trkpt lat="44.10624" lon="7.36168"><ele>2198.6</ele></trkpt>
    <trkpt lat="44.10644" lon="7.36206"><ele>2199.2</ele></trkpt>
    <trkpt lat="44.10677" lon="7.36278"><ele>2212.4</ele></trkpt>
    <trkpt lat="44.10685" lon="7.36314"><ele>2221.8</ele></trkpt>
    <trkpt lat="44.10681" lon="7.36342"><ele>2225.7</ele></trkpt>
    <trkpt lat="44.10683" lon="7.3635"><ele>2228.3</ele></trkpt>
    <trkpt lat="44.1069" lon="7.36352"><ele>2228.3</ele></trkpt>
    <trkpt lat="44.1069" lon="7.36358"><ele>2233.5</ele></trkpt>
    <trkpt lat="44.10692" lon="7.36363"><ele>2233.5</ele></trkpt>
    <trkpt lat="44.10698" lon="7.36366"><ele>2236.8</ele></trkpt>
    <trkpt lat="44.10699" lon="7.36373"><ele>2238.4</ele></trkpt>
    <trkpt lat="44.10704" lon="7.36378"><ele>2239.8</ele></trkpt>
    <trkpt lat="44.10704" lon="7.36399"><ele>2244.1</ele></trkpt>
    <trkpt lat="44.10702" lon="7.36403"><ele>2245.1</ele></trkpt>
    <trkpt lat="44.10706" lon="7.36416"><ele>2247.5</ele></trkpt>
    <trkpt lat="44.10713" lon="7.36408"><ele>2251.7</ele></trkpt>
    <trkpt lat="44.10714" lon="7.36413"><ele>2251.7</ele></trkpt>
    <trkpt lat="44.10719" lon="7.36408"><ele>2251.7</ele></trkpt>
    <trkpt lat="44.10722" lon="7.36409"><ele>2251.7</ele></trkpt>
    <trkpt lat="44.10726" lon="7.36405"><ele>2262.6</ele></trkpt>
    <trkpt lat="44.10726" lon="7.36412"><ele>2262.6</ele></trkpt>
    <trkpt lat="44.10729" lon="7.36411"><ele>2262.6</ele></trkpt>
    <trkpt lat="44.1073" lon="7.36414"><ele>2262.6</ele></trkpt>
    <trkpt lat="44.10736" lon="7.36412"><ele>2262.6</ele></trkpt>
    <trkpt lat="44.10737" lon="7.36408"><ele>2262.6</ele></trkpt>
    <trkpt lat="44.10741" lon="7.36409"><ele>2272.0</ele></trkpt>
    <trkpt lat="44.10744" lon="7.36414"><ele>2272.0</ele></trkpt>
    <trkpt lat="44.10752" lon="7.36404"><ele>2275.5</ele></trkpt>
    <trkpt lat="44.10757" lon="7.36403"><ele>2275.5</ele></trkpt>
    <trkpt lat="44.1076" lon="7.36398"><ele>2275.5</ele></trkpt>
    <trkpt lat="44.10765" lon="7.36399"><ele>2280.7</ele></trkpt>
    <trkpt lat="44.10766" lon="7.36395"><ele>2280.7</ele></trkpt>
    <trkpt lat="44.10767" lon="7.36401"><ele>2282.5</ele></trkpt>
    <trkpt lat="44.10776" lon="7.364"><ele>2286.4</ele></trkpt>
    <trkpt lat="44.10774" lon="7.36415"><ele>2292.5</ele></trkpt>
    <trkpt lat="44.10778" lon="7.36424"><ele>2295.6</ele></trkpt>
    <trkpt lat="44.10786" lon="7.36431"><ele>2299.1</ele></trkpt>
    <trkpt lat="44.1079" lon="7.36441"><ele>2299.1</ele></trkpt>
    <trkpt lat="44.10809" lon="7.36463"><ele>2307.0</ele></trkpt>
    <trkpt lat="44.1083" lon="7.36504"><ele>2324.7</ele></trkpt>
    <trkpt lat="44.10858" lon="7.3653"><ele>2334.2</ele></trkpt>
    <trkpt lat="44.10869" lon="7.36536"><ele>2336.8</ele></trkpt>
    <trkpt lat="44.10887" lon="7.36558"><ele>2338.7</ele></trkpt>
    <trkpt lat="44.10903" lon="7.36572"><ele>2341.2</ele></trkpt>
    <trkpt lat="44.10907" lon="7.36584"><ele>2342.4</ele></trkpt>
    <trkpt lat="44.10917" lon="7.36595"><ele>2345.0</ele></trkpt>
    <trkpt lat="44.10932" lon="7.36643"><ele>2353.4</ele></trkpt>
    <trkpt lat="44.10935" lon="7.36642"><ele>2354.8</ele></trkpt>
    <trkpt lat="44.10937" lon="7.36647"><ele>2356.3</ele></trkpt>
    <trkpt lat="44.10949" lon="7.36654"><ele>2361.1</ele></trkpt>
    <trkpt lat="44.10949" lon="7.36666"><ele>2362.6</ele></trkpt>
    <trkpt lat="44.10952" lon="7.36676"><ele>2365.4</ele></trkpt>
    <trkpt lat="44.10959" lon="7.36685"><ele>2369.2</ele></trkpt>
    <trkpt lat="44.10968" lon="7.36688"><ele>2371.9</ele></trkpt>
    <trkpt lat="44.10974" lon="7.367"><ele>2374.8</ele></trkpt>
    <trkpt lat="44.10984" lon="7.36697"><ele>2378.0</ele></trkpt>
    <trkpt lat="44.10992" lon="7.36704"><ele>2381.3</ele></trkpt>
    <trkpt lat="44.10997" lon="7.36716"><ele>2381.3</ele></trkpt>
    <trkpt lat="44.11011" lon="7.36736"><ele>2390.2</ele></trkpt>
    <trkpt lat="44.11021" lon="7.36737"><ele>2398.7</ele></trkpt>
    <trkpt lat="44.11026" lon="7.3674"><ele>2398.7</ele></trkpt>
    <trkpt lat="44.11027" lon="7.36747"><ele>2400.4</ele></trkpt>
    <trkpt lat="44.1103" lon="7.3675"><ele>2400.4</ele></trkpt>
    <trkpt lat="44.11033" lon="7.36758"><ele>2405.9</ele></trkpt>
    <trkpt lat="44.11051" lon="7.36772"><ele>2412.3</ele></trkpt>
    <trkpt lat="44.11059" lon="7.3677"><ele>2416.2</ele></trkpt>
    <trkpt lat="44.11071" lon="7.3678"><ele>2420.3</ele></trkpt>
    <trkpt lat="44.11083" lon="7.36784"><ele>2422.8</ele></trkpt>
    <trkpt lat="44.11102" lon="7.36797"><ele>2429.0</ele></trkpt>
    <trkpt lat="44.11121" lon="7.36818"><ele>2432.0</ele></trkpt>
    <trkpt lat="44.11144" lon="7.36829"><ele>2433.5</ele></trkpt>
    <trkpt lat="44.11147" lon="7.36837"><ele>2434.1</ele></trkpt>
    <trkpt lat="44.11157" lon="7.36845"><ele>2435.3</ele></trkpt>
    <trkpt lat="44.1116" lon="7.36865"><ele>2437.1</ele></trkpt>
    <trkpt lat="44.11172" lon="7.36875"><ele>2442.3</ele></trkpt>
    <trkpt lat="44.11173" lon="7.3688"><ele>2443.4</ele></trkpt>
    <trkpt lat="44.11183" lon="7.36882"><ele>2445.8</ele></trkpt>
    <trkpt lat="44.11186" lon="7.36896"><ele>2448.7</ele></trkpt>
    <trkpt lat="44.11189" lon="7.36895"><ele>2450.3</ele></trkpt>
    <trkpt lat="44.11188" lon="7.36918"><ele>2455.3</ele></trkpt>
    <trkpt lat="44.11195" lon="7.36927"><ele>2460.0</ele></trkpt>
    <trkpt lat="44.11213" lon="7.3693"><ele>2465.2</ele></trkpt>
    <trkpt lat="44.1122" lon="7.36941"><ele>2472.8</ele></trkpt>
    <trkpt lat="44.1123" lon="7.36942"><ele>2474.6</ele></trkpt>
    <trkpt lat="44.11235" lon="7.36945"><ele>2476.3</ele></trkpt>
    <trkpt lat="44.11241" lon="7.36973"><ele>2482.6</ele></trkpt>
    <trkpt lat="44.11258" lon="7.36989"><ele>2485.9</ele></trkpt>
    <trkpt lat="44.11276" lon="7.37042"><ele>2488.8</ele></trkpt>
    <trkpt lat="44.11288" lon="7.3706"><ele>2491.4</ele></trkpt>
    <trkpt lat="44.11288" lon="7.37083"><ele>2494.8</ele></trkpt>
    <trkpt lat="44.11301" lon="7.37079"><ele>2497.3</ele></trkpt>
    <trkpt lat="44.11307" lon="7.37107"><ele>2503.8</ele></trkpt>
    <trkpt lat="44.11322" lon="7.37131"><ele>2505.8</ele></trkpt>
    <trkpt lat="44.11329" lon="7.37168"><ele>2507.8</ele></trkpt>
    <trkpt lat="44.11342" lon="7.3719"><ele>2509.0</ele></trkpt>
    <trkpt lat="44.11355" lon="7.37201"><ele>2511.2</ele></trkpt>
    <trkpt lat="44.11365" lon="7.3723"><ele>2517.7</ele></trkpt>
    <trkpt lat="44.1137" lon="7.3727"><ele>2525.5</ele></trkpt>
    <trkpt lat="44.11377" lon="7.3728"><ele>2533.2</ele></trkpt>
    <trkpt lat="44.11389" lon="7.37279"><ele>2536.7</ele></trkpt>
    <trkpt lat="44.11404" lon="7.37392"><ele>2548.2</ele></trkpt>
    <trkpt lat="44.1141" lon="7.3741"><ele>2550.9</ele></trkpt>
    <trkpt lat="44.11403" lon="7.37429"><ele>2553.7</ele></trkpt>
    <trkpt lat="44.11409" lon="7.37477"><ele>2561.8</ele></trkpt>
    <trkpt lat="44.11415" lon="7.37492"><ele>2563.0</ele></trkpt>
    <trkpt lat="44.11427" lon="7.3751"><ele>2563.4</ele></trkpt>
    <trkpt lat="44.11448" lon="7.37533"><ele>2564.2</ele></trkpt>
    <trkpt lat="44.11481" lon="7.37565"><ele>2568.8</ele></trkpt>
    <trkpt lat="44.115" lon="7.37563"><ele>2571.7</ele></trkpt>
    <trkpt lat="44.11517" lon="7.37565"><ele>2576.0</ele></trkpt>
    <trkpt lat="44.11539" lon="7.37561"><ele>2583.1</ele></trkpt>
    <trkpt lat="44.1155" lon="7.37571"><ele>2586.2</ele></trkpt>
    <trkpt lat="44.11572" lon="7.37582"><ele>2595.1</ele></trkpt>
    <trkpt lat="44.11585" lon="7.37581"><ele>2602.2</ele></trkpt>
    <trkpt lat="44.11596" lon="7.37592"><ele>2605.3</ele></trkpt>
    <trkpt lat="44.11617" lon="7.37594"><ele>2612.6</ele></trkpt>
    <trkpt lat="44.11645" lon="7.37628"><ele>2625.5</ele></trkpt>
    <trkpt lat="44.1168" lon="7.37651"><ele>2640.2</ele></trkpt>
    <trkpt lat="44.11696" lon="7.37667"><ele>2647.1</ele></trkpt>
    <trkpt lat="44.11693" lon="7.37704"><ele>2651.2</ele></trkpt>
    <trkpt lat="44.11679" lon="7.37736"><ele>2655.8</ele></trkpt>
    <trkpt lat="44.11643" lon="7.37801"><ele>2666.5</ele></trkpt>
    <trkpt lat="44.11647" lon="7.37825"><ele>2670.8</ele></trkpt>
    <trkpt lat="44.11656" lon="7.37858"><ele>2674.6</ele></trkpt>
    <trkpt lat="44.11657" lon="7.37887"><ele>2678.8</ele></trkpt>
    <trkpt lat="44.11649" lon="7.37909"><ele>2681.1</ele></trkpt>
    <trkpt lat="44.11645" lon="7.37957"><ele>2684.7</ele></trkpt>
    <trkpt lat="44.11635" lon="7.37991"><ele>2690.2</ele></trkpt>
    <trkpt lat="44.11641" lon="7.38029"><ele>2694.7</ele></trkpt>
    <trkpt lat="44.11633" lon="7.38066"><ele>2705.7</ele></trkpt>
    <trkpt lat="44.11631" lon="7.38091"><ele>2708.3</ele></trkpt>
    <trkpt lat="44.11636" lon="7.3812"><ele>2716.8</ele></trkpt>
    <trkpt lat="44.11666" lon="7.38159"><ele>2730.0</ele></trkpt>
    <trkpt lat="44.11708" lon="7.38248"><ele>2768.5</ele></trkpt>
    <trkpt lat="44.11732" lon="7.38265"><ele>2780.2</ele></trkpt>
    <trkpt lat="44.11761" lon="7.38354"><ele>2817.0</ele></trkpt>
    <trkpt lat="44.11755" lon="7.38385"><ele>2827.3</ele></trkpt>
    <trkpt lat="44.11778" lon="7.38408"><ele>2842.4</ele></trkpt>
    <trkpt lat="44.11785" lon="7.3842"><ele>2851.6</ele></trkpt>
    <trkpt lat="44.11815" lon="7.38448"><ele>2862.2</ele></trkpt>
    <trkpt lat="44.11844" lon="7.38467"><ele>2864.6</ele></trkpt>
    <trkpt lat="44.11885" lon="7.38511"><ele>2877.0</ele></trkpt>
    <trkpt lat="44.11929" lon="7.38582"><ele>2899.4</ele></trkpt>
    <trkpt lat="44.11953" lon="7.38589"><ele>2909.0</ele></trkpt>
    <trkpt lat="44.12015" lon="7.38617"><ele>2924.4</ele></trkpt>
    <trkpt lat="44.12058" lon="7.38632"><ele>2927.8</ele></trkpt>
    <trkpt lat="44.12098" lon="7.38603"><ele>2928.5</ele></trkpt>
    <trkpt lat="44.12138" lon="7.38574"><ele>2931.8</ele></trkpt>
    <trkpt lat="44.12146" lon="7.38552"><ele>2934.0</ele></trkpt>
    <trkpt lat="44.12155" lon="7.38547"><ele>2938.7</ele></trkpt>
    <trkpt lat="44.12173" lon="7.38555"><ele>2940.3</ele></trkpt>
    <trkpt lat="44.12187" lon="7.38555"><ele>2943.4</ele></trkpt>
    <trkpt lat="44.12216" lon="7.38536"><ele>2952.0</ele></trkpt>
    <trkpt lat="44.12225" lon="7.38513"><ele>2954.3</ele></trkpt>
    <trkpt lat="44.12238" lon="7.38396"><ele>2989.2</ele></trkpt>
    <trkpt lat="44.12265" lon="7.38387"><ele>3000.4</ele></trkpt>
    <trkpt lat="44.12273" lon="7.38417"><ele>3007.8</ele></trkpt>
    <trkpt lat="44.12265" lon="7.38387"><ele>3004.4</ele></trkpt>
    <trkpt lat="44.12238" lon="7.38396"><ele>2991.3</ele></trkpt>
    <trkpt lat="44.12225" lon="7.38513"><ele>2957.1</ele></trkpt>
    <trkpt lat="44.12216" lon="7.38536"><ele>2953.5</ele></trkpt>
    <trkpt lat="44.12187" lon="7.38555"><ele>2946.8</ele></trkpt>
    <trkpt lat="44.12173" lon="7.38555"><ele>2943.4</ele></trkpt>
    <trkpt lat="44.12155" lon="7.38547"><ele>2938.7</ele></trkpt>
    <trkpt lat="44.12146" lon="7.38552"><ele>2938.7</ele></trkpt>
    <trkpt lat="44.12138" lon="7.38574"><ele>2934.0</ele></trkpt>
    <trkpt lat="44.12098" lon="7.38603"><ele>2928.7</ele></trkpt>
    <trkpt lat="44.12058" lon="7.38632"><ele>2929.3</ele></trkpt>
    <trkpt lat="44.12062" lon="7.38652"><ele>2930.2</ele></trkpt>
    <trkpt lat="44.12056" lon="7.38661"><ele>2930.8</ele></trkpt>
    <trkpt lat="44.12034" lon="7.38661"><ele>2930.2</ele></trkpt>
    <trkpt lat="44.12023" lon="7.38684"><ele>2922.9</ele></trkpt>
    <trkpt lat="44.12016" lon="7.38683"><ele>2920.4</ele></trkpt>
    <trkpt lat="44.12017" lon="7.38674"><ele>2917.6</ele></trkpt>
    <trkpt lat="44.12007" lon="7.38692"><ele>2908.2</ele></trkpt>
    <trkpt lat="44.1201" lon="7.38702"><ele>2899.2</ele></trkpt>
    <trkpt lat="44.11981" lon="7.38745"><ele>2873.5</ele></trkpt>
    <trkpt lat="44.11974" lon="7.38798"><ele>2855.6</ele></trkpt>
    <trkpt lat="44.11984" lon="7.38803"><ele>2848.7</ele></trkpt>
    <trkpt lat="44.11995" lon="7.38773"><ele>2835.4</ele></trkpt>
    <trkpt lat="44.12002" lon="7.38796"><ele>2825.4</ele></trkpt>
    <trkpt lat="44.11992" lon="7.38869"><ele>2796.1</ele></trkpt>
    <trkpt lat="44.119515" lon="7.388985"><ele>2774.8</ele></trkpt>
    <trkpt lat="44.11911" lon="7.38928"><ele>2763.7</ele></trkpt>
    <trkpt lat="44.11901" lon="7.38953"><ele>2763.6</ele></trkpt>
    <trkpt lat="44.1185" lon="7.38947"><ele>2758.5</ele></trkpt>
    <trkpt lat="44.11818" lon="7.38969"><ele>2752.9</ele></trkpt>
    <trkpt lat="44.1174" lon="7.38985"><ele>2722.0</ele></trkpt>
    <trkpt lat="44.11704" lon="7.39027"><ele>2702.4</ele></trkpt>
    <trkpt lat="44.11678" lon="7.39104"><ele>2665.6</ele></trkpt>
    <trkpt lat="44.11664" lon="7.39122"><ele>2663.0</ele></trkpt>
    <trkpt lat="44.11635" lon="7.39132"><ele>2658.0</ele></trkpt>
    <trkpt lat="44.11611" lon="7.39127"><ele>2655.2</ele></trkpt>
    <trkpt lat="44.11594" lon="7.39111"><ele>2650.0</ele></trkpt>
    <trkpt lat="44.11566" lon="7.39104"><ele>2643.4</ele></trkpt>
    <trkpt lat="44.11539" lon="7.39102"><ele>2637.5</ele></trkpt>
    <trkpt lat="44.11523" lon="7.39105"><ele>2635.6</ele></trkpt>
    <trkpt lat="44.11507" lon="7.39089"><ele>2630.7</ele></trkpt>
    <trkpt lat="44.11453" lon="7.39095"><ele>2621.8</ele></trkpt>
    <trkpt lat="44.11442" lon="7.39087"><ele>2618.3</ele></trkpt>
    <trkpt lat="44.11422" lon="7.39109"><ele>2614.4</ele></trkpt>
    <trkpt lat="44.11391" lon="7.3912"><ele>2610.5</ele></trkpt>
    <trkpt lat="44.1133" lon="7.39137"><ele>2600.3</ele></trkpt>
    <trkpt lat="44.11291" lon="7.3915"><ele>2594.9</ele></trkpt>
    <trkpt lat="44.11268" lon="7.39169"><ele>2594.2</ele></trkpt>
    <trkpt lat="44.11257" lon="7.39185"><ele>2593.5</ele></trkpt>
    <trkpt lat="44.11222" lon="7.3921"><ele>2583.1</ele></trkpt>
    <trkpt lat="44.11197" lon="7.39238"><ele>2577.7</ele></trkpt>
    <trkpt lat="44.1118" lon="7.39267"><ele>2578.1</ele></trkpt>
    <trkpt lat="44.11167" lon="7.39283"><ele>2580.8</ele></trkpt>
    <trkpt lat="44.11114" lon="7.39271"><ele>2584.4</ele></trkpt>
    <trkpt lat="44.11065" lon="7.39276"><ele>2581.0</ele></trkpt>
    <trkpt lat="44.10995" lon="7.39254"><ele>2565.0</ele></trkpt>
    <trkpt lat="44.10954" lon="7.392225"><ele>2553.9</ele></trkpt>
    <trkpt lat="44.10913" lon="7.39191"><ele>2538.3</ele></trkpt>
    <trkpt lat="44.10894" lon="7.39198"><ele>2529.2</ele></trkpt>
    <trkpt lat="44.1087" lon="7.39183"><ele>2520.4</ele></trkpt>
    <trkpt lat="44.10823" lon="7.39194"><ele>2504.5</ele></trkpt>
    <trkpt lat="44.10778" lon="7.3925"><ele>2481.8</ele></trkpt>
    <trkpt lat="44.10762" lon="7.39248"><ele>2466.5</ele></trkpt>
    <trkpt lat="44.10747" lon="7.39251"><ele>2455.2</ele></trkpt>
    <trkpt lat="44.10737" lon="7.3927"><ele>2448.9</ele></trkpt>
    <trkpt lat="44.10688" lon="7.39322"><ele>2429.9</ele></trkpt>
    <trkpt lat="44.10649" lon="7.39323"><ele>2406.6</ele></trkpt>
    <trkpt lat="44.1062" lon="7.39342"><ele>2393.3</ele></trkpt>
    <trkpt lat="44.10603" lon="7.39384"><ele>2380.4</ele></trkpt>
    <trkpt lat="44.10587" lon="7.39384"><ele>2375.8</ele></trkpt>
    <trkpt lat="44.10563" lon="7.39399"><ele>2371.4</ele></trkpt>
    <trkpt lat="44.10502" lon="7.39389"><ele>2355.3</ele></trkpt>
    <trkpt lat="44.10498" lon="7.39404"><ele>2352.3</ele></trkpt>
    <trkpt lat="44.10488" lon="7.39416"><ele>2347.0</ele></trkpt>
    <trkpt lat="44.10468" lon="7.39425"><ele>2337.6</ele></trkpt>
    <trkpt lat="44.10459" lon="7.39421"><ele>2334.4</ele></trkpt>
    <trkpt lat="44.10463" lon="7.39432"><ele>2334.4</ele></trkpt>
    <trkpt lat="44.10462" lon="7.39433"><ele>2328.7</ele></trkpt>
    <trkpt lat="44.10451" lon="7.3943"><ele>2328.7</ele></trkpt>
    <trkpt lat="44.10437" lon="7.39416"><ele>2321.1</ele></trkpt>
    <trkpt lat="44.10408" lon="7.39409"><ele>2314.4</ele></trkpt>
    <trkpt lat="44.10382" lon="7.39413"><ele>2305.5</ele></trkpt>
    <trkpt lat="44.10372" lon="7.39425"><ele>2302.2</ele></trkpt>
    <trkpt lat="44.10378" lon="7.39429"><ele>2298.6</ele></trkpt>
    <trkpt lat="44.10374" lon="7.39437"><ele>2298.6</ele></trkpt>
    <trkpt lat="44.1036" lon="7.39447"><ele>2287.3</ele></trkpt>
    <trkpt lat="44.10375" lon="7.39454"><ele>2283.9</ele></trkpt>
    <trkpt lat="44.1038" lon="7.3947"><ele>2274.1</ele></trkpt>
    <trkpt lat="44.10395" lon="7.39488"><ele>2272.4</ele></trkpt>
    <trkpt lat="44.10365" lon="7.39492"><ele>2258.9</ele></trkpt>
    <trkpt lat="44.10335" lon="7.3951"><ele>2247.0</ele></trkpt>
    <trkpt lat="44.10331" lon="7.39515"><ele>2247.0</ele></trkpt>
    <trkpt lat="44.10279" lon="7.39539"><ele>2232.0</ele></trkpt>
    <trkpt lat="44.10262" lon="7.39538"><ele>2226.3</ele></trkpt>
    <trkpt lat="44.10249" lon="7.39533"><ele>2223.0</ele></trkpt>
    <trkpt lat="44.10234" lon="7.39534"><ele>2221.4</ele></trkpt>
    <trkpt lat="44.10223" lon="7.39537"><ele>2220.5</ele></trkpt>
    <trkpt lat="44.1022" lon="7.39543"><ele>2220.4</ele></trkpt>
    <trkpt lat="44.10206" lon="7.39554"><ele>2220.1</ele></trkpt>
    <trkpt lat="44.10203" lon="7.39558"><ele>2219.8</ele></trkpt>
    <trkpt lat="44.10155" lon="7.39579"><ele>2215.5</ele></trkpt>
    <trkpt lat="44.10152" lon="7.39589"><ele>2213.0</ele></trkpt>
    <trkpt lat="44.10146" lon="7.39589"><ele>2213.0</ele></trkpt>
    <trkpt lat="44.1014" lon="7.39594"><ele>2208.7</ele></trkpt>
    <trkpt lat="44.10133" lon="7.39595"><ele>2207.3</ele></trkpt>
    <trkpt lat="44.10127" lon="7.39599"><ele>2204.9</ele></trkpt>
    <trkpt lat="44.10121" lon="7.39607"><ele>2203.7</ele></trkpt>
    <trkpt lat="44.10142" lon="7.39608"><ele>2202.6</ele></trkpt>
    <trkpt lat="44.10176" lon="7.39606"><ele>2200.3</ele></trkpt>
    <trkpt lat="44.1019" lon="7.396"><ele>2197.9</ele></trkpt>
    <trkpt lat="44.10216" lon="7.39598"><ele>2196.0</ele></trkpt>
    <trkpt lat="44.10242" lon="7.39593"><ele>2194.1</ele></trkpt>
    <trkpt lat="44.1025" lon="7.39597"><ele>2193.9</ele></trkpt>
    <trkpt lat="44.10263" lon="7.39608"><ele>2193.4</ele></trkpt>
    <trkpt lat="44.10319" lon="7.39643"><ele>2190.7</ele></trkpt>
    <trkpt lat="44.10339" lon="7.39668"><ele>2190.1</ele></trkpt>
    <trkpt lat="44.10343" lon="7.39665"><ele>2190.6</ele></trkpt>
    <trkpt lat="44.10351" lon="7.39668"><ele>2191.0</ele></trkpt>
    <trkpt lat="44.10363" lon="7.39683"><ele>2191.1</ele></trkpt>
    <trkpt lat="44.10369" lon="7.39687"><ele>2191.1</ele></trkpt>
    <trkpt lat="44.10381" lon="7.39693"><ele>2191.1</ele></trkpt>
    <trkpt lat="44.10387" lon="7.39694"><ele>2191.2</ele></trkpt>
    <trkpt lat="44.104" lon="7.39701"><ele>2191.5</ele></trkpt>
    <trkpt lat="44.10414" lon="7.39703"><ele>2192.2</ele></trkpt>
    <trkpt lat="44.10419" lon="7.39709"><ele>2192.6</ele></trkpt>
    <trkpt lat="44.10423" lon="7.39716"><ele>2192.6</ele></trkpt>
    <trkpt lat="44.10429" lon="7.39736"><ele>2193.7</ele></trkpt>
    <trkpt lat="44.10434" lon="7.39741"><ele>2194.5</ele></trkpt>
    <trkpt lat="44.10438" lon="7.39749"><ele>2194.8</ele></trkpt>
    <trkpt lat="44.10443" lon="7.39768"><ele>2195.5</ele></trkpt>
    <trkpt lat="44.10448" lon="7.39776"><ele>2195.6</ele></trkpt>
    <trkpt lat="44.10452" lon="7.39797"><ele>2195.4</ele></trkpt>
    <trkpt lat="44.10451" lon="7.39816"><ele>2195.1</ele></trkpt>
    <trkpt lat="44.10464" lon="7.39833"><ele>2195.2</ele></trkpt>
    <trkpt lat="44.10467" lon="7.39841"><ele>2195.4</ele></trkpt>
    <trkpt lat="44.10475" lon="7.39849"><ele>2195.4</ele></trkpt>
    <trkpt lat="44.10479" lon="7.39851"><ele>2196.7</ele></trkpt>
    <trkpt lat="44.10489" lon="7.39864"><ele>2197.0</ele></trkpt>
    <trkpt lat="44.10489" lon="7.39873"><ele>2197.2</ele></trkpt>
    <trkpt lat="44.10498" lon="7.39893"><ele>2197.5</ele></trkpt>
    <trkpt lat="44.10502" lon="7.39913"><ele>2197.8</ele></trkpt>
    <trkpt lat="44.10502" lon="7.39932"><ele>2197.7</ele></trkpt>
    <trkpt lat="44.10505" lon="7.39944"><ele>2197.7</ele></trkpt>
    <trkpt lat="44.10502" lon="7.39955"><ele>2198.1</ele></trkpt>
    <trkpt lat="44.10502" lon="7.39973"><ele>2198.8</ele></trkpt>
    <trkpt lat="44.10514" lon="7.40004"><ele>2200.7</ele></trkpt>
    <trkpt lat="44.1052" lon="7.40026"><ele>2200.4</ele></trkpt>
    <trkpt lat="44.10517" lon="7.40032"><ele>2200.4</ele></trkpt>
    <trkpt lat="44.10511" lon="7.40031"><ele>2200.4</ele></trkpt>
    <trkpt lat="44.10507" lon="7.40033"><ele>2200.5</ele></trkpt>
    <trkpt lat="44.10509" lon="7.40044"><ele>2200.7</ele></trkpt>
    <trkpt lat="44.10514" lon="7.40055"><ele>2201.0</ele></trkpt>
    <trkpt lat="44.10507" lon="7.40053"><ele>2204.1</ele></trkpt>
    <trkpt lat="44.10507" lon="7.40056"><ele>2204.1</ele></trkpt>
    <trkpt lat="44.1049" lon="7.40054"><ele>2212.4</ele></trkpt>
    <trkpt lat="44.10482" lon="7.40051"><ele>2215.4</ele></trkpt>
    <trkpt lat="44.10478" lon="7.40052"><ele>2215.4</ele></trkpt>
    <trkpt lat="44.10471" lon="7.40046"><ele>2219.2</ele></trkpt>
    <trkpt lat="44.10469" lon="7.40047"><ele>2219.2</ele></trkpt>
    <trkpt lat="44.10475" lon="7.40066"><ele>2220.2</ele></trkpt>
    <trkpt lat="44.10473" lon="7.40069"><ele>2225.4</ele></trkpt>
    <trkpt lat="44.10463" lon="7.40067"><ele>2225.4</ele></trkpt>
    <trkpt lat="44.10459" lon="7.40064"><ele>2225.4</ele></trkpt>
    <trkpt lat="44.1045" lon="7.40057"><ele>2226.0</ele></trkpt>
    <trkpt lat="44.10447" lon="7.40049"><ele>2226.0</ele></trkpt>
    <trkpt lat="44.1045" lon="7.40057"><ele>2225.9</ele></trkpt>
    <trkpt lat="44.10459" lon="7.40064"><ele>2225.4</ele></trkpt>
    <trkpt lat="44.10463" lon="7.40067"><ele>2225.4</ele></trkpt>
    <trkpt lat="44.10473" lon="7.40069"><ele>2220.2</ele></trkpt>
    <trkpt lat="44.10475" lon="7.40066"><ele>2220.2</ele></trkpt>
    <trkpt lat="44.10469" lon="7.40047"><ele>2219.2</ele></trkpt>
    <trkpt lat="44.10471" lon="7.40046"><ele>2215.4</ele></trkpt>
    <trkpt lat="44.10478" lon="7.40052"><ele>2215.4</ele></trkpt>
    <trkpt lat="44.10482" lon="7.40051"><ele>2215.4</ele></trkpt>
    <trkpt lat="44.1049" lon="7.40054"><ele>2210.9</ele></trkpt>
    <trkpt lat="44.10507" lon="7.40056"><ele>2204.1</ele></trkpt>
    <trkpt lat="44.10507" lon="7.40053"><ele>2204.1</ele></trkpt>
    <trkpt lat="44.10514" lon="7.40055"><ele>2201.0</ele></trkpt>
    <trkpt lat="44.10509" lon="7.40044"><ele>2200.6</ele></trkpt>
    <trkpt lat="44.10507" lon="7.40033"><ele>2200.4</ele></trkpt>
    <trkpt lat="44.10511" lon="7.40031"><ele>2200.4</ele></trkpt>
    <trkpt lat="44.10517" lon="7.40032"><ele>2200.4</ele></trkpt>
    <trkpt lat="44.1052" lon="7.40026"><ele>2200.4</ele></trkpt>
    <trkpt lat="44.10514" lon="7.40004"><ele>2200.6</ele></trkpt>
    <trkpt lat="44.10502" lon="7.39973"><ele>2198.8</ele></trkpt>
    <trkpt lat="44.10502" lon="7.39955"><ele>2197.9</ele></trkpt>
    <trkpt lat="44.10505" lon="7.39944"><ele>2197.6</ele></trkpt>
    <trkpt lat="44.10502" lon="7.39932"><ele>2197.8</ele></trkpt>
    <trkpt lat="44.10502" lon="7.39913"><ele>2197.7</ele></trkpt>
    <trkpt lat="44.10498" lon="7.39893"><ele>2197.5</ele></trkpt>
    <trkpt lat="44.10489" lon="7.39873"><ele>2197.2</ele></trkpt>
    <trkpt lat="44.10489" lon="7.39864"><ele>2196.7</ele></trkpt>
    <trkpt lat="44.10473" lon="7.39801"><ele>2199.4</ele></trkpt>
    <trkpt lat="44.10472" lon="7.3977"><ele>2198.7</ele></trkpt>
    <trkpt lat="44.10474" lon="7.3976"><ele>2198.5</ele></trkpt>
    <trkpt lat="44.10473" lon="7.39746"><ele>2197.8</ele></trkpt>
    <trkpt lat="44.10467" lon="7.39734"><ele>2197.5</ele></trkpt>
    <trkpt lat="44.10462" lon="7.39731"><ele>2197.5</ele></trkpt>
    <trkpt lat="44.10458" lon="7.39732"><ele>2197.6</ele></trkpt>
    <trkpt lat="44.10453" lon="7.39726"><ele>2197.7</ele></trkpt>
    <trkpt lat="44.10449" lon="7.39699"><ele>2198.5</ele></trkpt>
    <trkpt lat="44.10449" lon="7.3968"><ele>2199.4</ele></trkpt>
    <trkpt lat="44.10442" lon="7.39665"><ele>2199.6</ele></trkpt>
    <trkpt lat="44.10425" lon="7.39646"><ele>2199.9</ele></trkpt>
    <trkpt lat="44.10402" lon="7.39638"><ele>2198.9</ele></trkpt>
    <trkpt lat="44.10382" lon="7.39626"><ele>2198.7</ele></trkpt>
    <trkpt lat="44.1037" lon="7.39621"><ele>2198.7</ele></trkpt>
    <trkpt lat="44.10348" lon="7.39623"><ele>2198.1</ele></trkpt>
    <trkpt lat="44.10314" lon="7.39616"><ele>2197.5</ele></trkpt>
    <trkpt lat="44.10237" lon="7.3958"><ele>2197.2</ele></trkpt>
    <trkpt lat="44.10216" lon="7.39598"><ele>2196.0</ele></trkpt>
    <trkpt lat="44.1019" lon="7.396"><ele>2197.9</ele></trkpt>
    <trkpt lat="44.10176" lon="7.39606"><ele>2200.3</ele></trkpt>
    <trkpt lat="44.10116" lon="7.39608"><ele>2203.8</ele></trkpt>
    <trkpt lat="44.10102" lon="7.39616"><ele>2203.2</ele></trkpt>
    <trkpt lat="44.10088" lon="7.39633"><ele>2202.1</ele></trkpt>
    <trkpt lat="44.10084" lon="7.39635"><ele>2201.7</ele></trkpt>
    <trkpt lat="44.10071" lon="7.39631"><ele>2200.3</ele></trkpt>
    <trkpt lat="44.10057" lon="7.39631"><ele>2198.7</ele></trkpt>
    <trkpt lat="44.10032" lon="7.39635"><ele>2196.7</ele></trkpt>
    <trkpt lat="44.10021" lon="7.39631"><ele>2194.7</ele></trkpt>
    <trkpt lat="44.10015" lon="7.39631"><ele>2194.7</ele></trkpt>
    <trkpt lat="44.09996" lon="7.39641"><ele>2192.0</ele></trkpt>
    <trkpt lat="44.09986" lon="7.39638"><ele>2188.3</ele></trkpt>
    <trkpt lat="44.09955" lon="7.39637"><ele>2184.7</ele></trkpt>
    <trkpt lat="44.09951" lon="7.39644"><ele>2182.9</ele></trkpt>
    <trkpt lat="44.0994" lon="7.39644"><ele>2180.2</ele></trkpt>
    <trkpt lat="44.09939" lon="7.39649"><ele>2180.2</ele></trkpt>
    <trkpt lat="44.09946" lon="7.39657"><ele>2179.4</ele></trkpt>
    <trkpt lat="44.0994" lon="7.39665"><ele>2175.0</ele></trkpt>
    <trkpt lat="44.09946" lon="7.39672"><ele>2175.0</ele></trkpt>
    <trkpt lat="44.09939" lon="7.3968"><ele>2172.9</ele></trkpt>
    <trkpt lat="44.0993" lon="7.39684"><ele>2170.6</ele></trkpt>
    <trkpt lat="44.09922" lon="7.39697"><ele>2169.3</ele></trkpt>
    <trkpt lat="44.09897" lon="7.39696"><ele>2167.1</ele></trkpt>
    <trkpt lat="44.09896" lon="7.39678"><ele>2164.0</ele></trkpt>
    <trkpt lat="44.09884" lon="7.39651"><ele>2160.1</ele></trkpt>
    <trkpt lat="44.09882" lon="7.39624"><ele>2158.0</ele></trkpt>
    <trkpt lat="44.09885" lon="7.39602"><ele>2156.7</ele></trkpt>
    <trkpt lat="44.09879" lon="7.39593"><ele>2155.9</ele></trkpt>
    <trkpt lat="44.09872" lon="7.39579"><ele>2155.3</ele></trkpt>
    <trkpt lat="44.09871" lon="7.39576"><ele>2155.3</ele></trkpt>
    <trkpt lat="44.09866" lon="7.39577"><ele>2153.0</ele></trkpt>
    <trkpt lat="44.09867" lon="7.39588"><ele>2151.8</ele></trkpt>
    <trkpt lat="44.09857" lon="7.39581"><ele>2146.5</ele></trkpt>
    <trkpt lat="44.09855" lon="7.39584"><ele>2146.5</ele></trkpt>
    <trkpt lat="44.09851" lon="7.39583"><ele>2145.2</ele></trkpt>
    <trkpt lat="44.09815" lon="7.39545"><ele>2139.2</ele></trkpt>
    <trkpt lat="44.09807" lon="7.39549"><ele>2138.8</ele></trkpt>
    <trkpt lat="44.09797" lon="7.39544"><ele>2137.4</ele></trkpt>
    <trkpt lat="44.09773" lon="7.39543"><ele>2134.4</ele></trkpt>
    <trkpt lat="44.09763" lon="7.39545"><ele>2133.5</ele></trkpt>
    <trkpt lat="44.09756" lon="7.3955"><ele>2133.2</ele></trkpt>
    <trkpt lat="44.09732" lon="7.39558"><ele>2131.2</ele></trkpt>
    <trkpt lat="44.09691" lon="7.39554"><ele>2130.0</ele></trkpt>
    <trkpt lat="44.09636" lon="7.39552"><ele>2128.0</ele></trkpt>
    <trkpt lat="44.09627" lon="7.39537"><ele>2127.4</ele></trkpt>
    <trkpt lat="44.09627" lon="7.39526"><ele>2127.4</ele></trkpt>
    <trkpt lat="44.09586" lon="7.39525"><ele>2126.4</ele></trkpt>
    <trkpt lat="44.09574" lon="7.39528"><ele>2126.5</ele></trkpt>
    <trkpt lat="44.09564" lon="7.39567"><ele>2126.2</ele></trkpt>
    <trkpt lat="44.09553" lon="7.39562"><ele>2126.2</ele></trkpt>
    <trkpt lat="44.09541" lon="7.39562"><ele>2126.6</ele></trkpt>
    <trkpt lat="44.09532" lon="7.39556"><ele>2127.3</ele></trkpt>
    <trkpt lat="44.09527" lon="7.39549"><ele>2128.3</ele></trkpt>
    <trkpt lat="44.09526" lon="7.39537"><ele>2129.0</ele></trkpt>
    <trkpt lat="44.09494" lon="7.39536"><ele>2129.6</ele></trkpt>
    <trkpt lat="44.09471" lon="7.39531"><ele>2129.2</ele></trkpt>
    <trkpt lat="44.09458" lon="7.39531"><ele>2129.1</ele></trkpt>
    <trkpt lat="44.09443" lon="7.39526"><ele>2129.0</ele></trkpt>
    <trkpt lat="44.09411" lon="7.39532"><ele>2126.3</ele></trkpt>
    <trkpt lat="44.09373" lon="7.39525"><ele>2126.1</ele></trkpt>
    <trkpt lat="44.09355" lon="7.39514"><ele>2126.1</ele></trkpt>
    <trkpt lat="44.09339" lon="7.39513"><ele>2125.9</ele></trkpt>
    <trkpt lat="44.09314" lon="7.39525"><ele>2129.3</ele></trkpt>
    <trkpt lat="44.09291" lon="7.3954"><ele>2130.9</ele></trkpt>
    <trkpt lat="44.09268" lon="7.39546"><ele>2129.4</ele></trkpt>
    <trkpt lat="44.09268" lon="7.39551"><ele>2129.4</ele></trkpt>
    <trkpt lat="44.09261" lon="7.39555"><ele>2128.7</ele></trkpt>
    <trkpt lat="44.09255" lon="7.39567"><ele>2128.7</ele></trkpt>
    <trkpt lat="44.09238" lon="7.39578"><ele>2128.8</ele></trkpt>
    <trkpt lat="44.09215" lon="7.39583"><ele>2126.4</ele></trkpt>
    <trkpt lat="44.09206" lon="7.39595"><ele>2123.7</ele></trkpt>
    <trkpt lat="44.09201" lon="7.3961"><ele>2119.3</ele></trkpt>
    <trkpt lat="44.09192" lon="7.39625"><ele>2117.2</ele></trkpt>
    <trkpt lat="44.09192" lon="7.39631"><ele>2117.2</ele></trkpt>
    <trkpt lat="44.09181" lon="7.39631"><ele>2114.3</ele></trkpt>
    <trkpt lat="44.09175" lon="7.39641"><ele>2111.1</ele></trkpt>
    <trkpt lat="44.09174" lon="7.3965"><ele>2111.1</ele></trkpt>
    <trkpt lat="44.09171" lon="7.39651"><ele>2108.8</ele></trkpt>
    <trkpt lat="44.09165" lon="7.39647"><ele>2108.8</ele></trkpt>
    <trkpt lat="44.09161" lon="7.39655"><ele>2103.8</ele></trkpt>
    <trkpt lat="44.09157" lon="7.3965"><ele>2103.8</ele></trkpt>
    <trkpt lat="44.09153" lon="7.39657"><ele>2101.4</ele></trkpt>
    <trkpt lat="44.0914" lon="7.39652"><ele>2099.4</ele></trkpt>
    <trkpt lat="44.09136" lon="7.39654"><ele>2097.6</ele></trkpt>
    <trkpt lat="44.09133" lon="7.39659"><ele>2097.6</ele></trkpt>
    <trkpt lat="44.09135" lon="7.39663"><ele>2095.6</ele></trkpt>
    <trkpt lat="44.09135" lon="7.39669"><ele>2095.6</ele></trkpt>
    <trkpt lat="44.09129" lon="7.39676"><ele>2093.5</ele></trkpt>
    <trkpt lat="44.09126" lon="7.39683"><ele>2093.5</ele></trkpt>
    <trkpt lat="44.09129" lon="7.39693"><ele>2090.2</ele></trkpt>
    <trkpt lat="44.09127" lon="7.39701"><ele>2087.3</ele></trkpt>
    <trkpt lat="44.09131" lon="7.3972"><ele>2084.2</ele></trkpt>
    <trkpt lat="44.09123" lon="7.39728"><ele>2080.7</ele></trkpt>
    <trkpt lat="44.09122" lon="7.39732"><ele>2080.7</ele></trkpt>
    <trkpt lat="44.09127" lon="7.3974"><ele>2071.6</ele></trkpt>
    <trkpt lat="44.09127" lon="7.3975"><ele>2071.6</ele></trkpt>
    <trkpt lat="44.09124" lon="7.3976"><ele>2068.1</ele></trkpt>
    <trkpt lat="44.0912" lon="7.3976"><ele>2068.1</ele></trkpt>
    <trkpt lat="44.09114" lon="7.39756"><ele>2066.5</ele></trkpt>
    <trkpt lat="44.09108" lon="7.39758"><ele>2066.5</ele></trkpt>
    <trkpt lat="44.09101" lon="7.39805"><ele>2051.7</ele></trkpt>
    <trkpt lat="44.09087" lon="7.39838"><ele>2042.0</ele></trkpt>
    <trkpt lat="44.09083" lon="7.39843"><ele>2042.0</ele></trkpt>
    <trkpt lat="44.09089" lon="7.39848"><ele>2039.2</ele></trkpt>
    <trkpt lat="44.0909" lon="7.39854"><ele>2039.2</ele></trkpt>
    <trkpt lat="44.09085" lon="7.39859"><ele>2039.2</ele></trkpt>
    <trkpt lat="44.09086" lon="7.39866"><ele>2032.0</ele></trkpt>
    <trkpt lat="44.09091" lon="7.3987"><ele>2032.0</ele></trkpt>
    <trkpt lat="44.09092" lon="7.39874"><ele>2032.0</ele></trkpt>
    <trkpt lat="44.09097" lon="7.39873"><ele>2029.2</ele></trkpt>
    <trkpt lat="44.09101" lon="7.39884"><ele>2027.9</ele></trkpt>
    <trkpt lat="44.09102" lon="7.39896"><ele>2025.6</ele></trkpt>
    <trkpt lat="44.091" lon="7.39908"><ele>2023.7</ele></trkpt>
    <trkpt lat="44.09094" lon="7.39908"><ele>2022.9</ele></trkpt>
    <trkpt lat="44.09082" lon="7.39914"><ele>2020.5</ele></trkpt>
    <trkpt lat="44.09074" lon="7.39916"><ele>2018.7</ele></trkpt>
    <trkpt lat="44.09074" lon="7.39925"><ele>2016.8</ele></trkpt>
    <trkpt lat="44.09079" lon="7.39931"><ele>2016.8</ele></trkpt>
    <trkpt lat="44.09076" lon="7.39952"><ele>2014.2</ele></trkpt>
    <trkpt lat="44.0906" lon="7.3997"><ele>2014.8</ele></trkpt>
    <trkpt lat="44.09054" lon="7.39984"><ele>2014.8</ele></trkpt>
    <trkpt lat="44.09043" lon="7.4"><ele>2014.0</ele></trkpt>
    <trkpt lat="44.09019" lon="7.40024"><ele>2013.9</ele></trkpt>
    <trkpt lat="44.09017" lon="7.40034"><ele>2013.9</ele></trkpt>
    <trkpt lat="44.09008" lon="7.40037"><ele>2013.9</ele></trkpt>
    <trkpt lat="44.08993" lon="7.4005"><ele>2014.6</ele></trkpt>
    <trkpt lat="44.08967" lon="7.40098"><ele>2015.8</ele></trkpt>
    <trkpt lat="44.08952" lon="7.40106"><ele>2011.6</ele></trkpt>
    <trkpt lat="44.08948" lon="7.40112"><ele>2011.6</ele></trkpt>
    <trkpt lat="44.08935" lon="7.40113"><ele>2009.9</ele></trkpt>
    <trkpt lat="44.08937" lon="7.40119"><ele>2008.5</ele></trkpt>
    <trkpt lat="44.08929" lon="7.40133"><ele>2006.9</ele></trkpt>
    <trkpt lat="44.08917" lon="7.40111"><ele>2003.3</ele></trkpt>
    <trkpt lat="44.08915" lon="7.40114"><ele>2000.9</ele></trkpt>
    <trkpt lat="44.08921" lon="7.40125"><ele>2000.1</ele></trkpt>
    <trkpt lat="44.08919" lon="7.40131"><ele>1999.1</ele></trkpt>
    <trkpt lat="44.08915" lon="7.40124"><ele>1998.0</ele></trkpt>
    <trkpt lat="44.08909" lon="7.40123"><ele>1995.6</ele></trkpt>
    <trkpt lat="44.08909" lon="7.40132"><ele>1994.3</ele></trkpt>
    <trkpt lat="44.08906" lon="7.40135"><ele>1991.5</ele></trkpt>
    <trkpt lat="44.08902" lon="7.4013"><ele>1991.5</ele></trkpt>
    <trkpt lat="44.08897" lon="7.40138"><ele>1987.2</ele></trkpt>
    <trkpt lat="44.08893" lon="7.40133"><ele>1987.2</ele></trkpt>
    <trkpt lat="44.08891" lon="7.40134"><ele>1987.2</ele></trkpt>
    <trkpt lat="44.0889" lon="7.40141"><ele>1987.2</ele></trkpt>
    <trkpt lat="44.08886" lon="7.40139"><ele>1981.3</ele></trkpt>
    <trkpt lat="44.08883" lon="7.40144"><ele>1981.3</ele></trkpt>
    <trkpt lat="44.0888" lon="7.40141"><ele>1981.3</ele></trkpt>
    <trkpt lat="44.08878" lon="7.40141"><ele>1981.3</ele></trkpt>
    <trkpt lat="44.08875" lon="7.40154"><ele>1977.0</ele></trkpt>
    <trkpt lat="44.08873" lon="7.40155"><ele>1975.5</ele></trkpt>
    <trkpt lat="44.08869" lon="7.40149"><ele>1972.4</ele></trkpt>
    <trkpt lat="44.08868" lon="7.40155"><ele>1972.4</ele></trkpt>
    <trkpt lat="44.08864" lon="7.40155"><ele>1972.4</ele></trkpt>
    <trkpt lat="44.08865" lon="7.40161"><ele>1967.6</ele></trkpt>
    <trkpt lat="44.08862" lon="7.40163"><ele>1967.6</ele></trkpt>
    <trkpt lat="44.08863" lon="7.40175"><ele>1964.7</ele></trkpt>
    <trkpt lat="44.08861" lon="7.40179"><ele>1964.7</ele></trkpt>
    <trkpt lat="44.08856" lon="7.40182"><ele>1962.1</ele></trkpt>
    <trkpt lat="44.08855" lon="7.40177"><ele>1962.1</ele></trkpt>
    <trkpt lat="44.08851" lon="7.40173"><ele>1960.9</ele></trkpt>
    <trkpt lat="44.08845" lon="7.40176"><ele>1959.8</ele></trkpt>
    <trkpt lat="44.08845" lon="7.40185"><ele>1955.7</ele></trkpt>
    <trkpt lat="44.0884" lon="7.40187"><ele>1955.7</ele></trkpt>
    <trkpt lat="44.08839" lon="7.4019"><ele>1955.7</ele></trkpt>
    <trkpt lat="44.08831" lon="7.40195"><ele>1953.4</ele></trkpt>
    <trkpt lat="44.0883" lon="7.40205"><ele>1950.9</ele></trkpt>
    <trkpt lat="44.08811" lon="7.40223"><ele>1946.9</ele></trkpt>
    <trkpt lat="44.08807" lon="7.40225"><ele>1941.2</ele></trkpt>
    <trkpt lat="44.08806" lon="7.40206"><ele>1941.2</ele></trkpt>
    <trkpt lat="44.08797" lon="7.40212"><ele>1935.4</ele></trkpt>
    <trkpt lat="44.08798" lon="7.40191"><ele>1927.9</ele></trkpt>
    <trkpt lat="44.08789" lon="7.40195"><ele>1927.9</ele></trkpt>
    <trkpt lat="44.08789" lon="7.40185"><ele>1925.1</ele></trkpt>
    <trkpt lat="44.08786" lon="7.40181"><ele>1923.8</ele></trkpt>
    <trkpt lat="44.08783" lon="7.40188"><ele>1922.6</ele></trkpt>
    <trkpt lat="44.08775" lon="7.40191"><ele>1919.2</ele></trkpt>
    <trkpt lat="44.08752" lon="7.40223"><ele>1910.7</ele></trkpt>
    <trkpt lat="44.08747" lon="7.40218"><ele>1909.3</ele></trkpt>
    <trkpt lat="44.08739" lon="7.40234"><ele>1903.1</ele></trkpt>
    <trkpt lat="44.08729" lon="7.40238"><ele>1903.1</ele></trkpt>
    <trkpt lat="44.08716" lon="7.40256"><ele>1898.2</ele></trkpt>
    <trkpt lat="44.08713" lon="7.40222"><ele>1890.4</ele></trkpt>
    <trkpt lat="44.08706" lon="7.40232"><ele>1886.8</ele></trkpt>
    <trkpt lat="44.087" lon="7.40237"><ele>1885.5</ele></trkpt>
    <trkpt lat="44.08697" lon="7.40209"><ele>1878.7</ele></trkpt>
    <trkpt lat="44.08692" lon="7.4021"><ele>1877.4</ele></trkpt>
    <trkpt lat="44.08688" lon="7.40205"><ele>1876.2</ele></trkpt>
    <trkpt lat="44.08685" lon="7.40205"><ele>1875.1</ele></trkpt>
    <trkpt lat="44.08681" lon="7.4021"><ele>1874.2</ele></trkpt>
    <trkpt lat="44.08673" lon="7.40212"><ele>1873.0</ele></trkpt>
    <trkpt lat="44.08664" lon="7.40235"><ele>1871.4</ele></trkpt>
    <trkpt lat="44.08659" lon="7.40239"><ele>1869.5</ele></trkpt>
    <trkpt lat="44.08651" lon="7.40256"><ele>1868.2</ele></trkpt>
    <trkpt lat="44.08643" lon="7.40262"><ele>1867.9</ele></trkpt>
    <trkpt lat="44.08636" lon="7.40285"><ele>1866.2</ele></trkpt>
    <trkpt lat="44.08628" lon="7.40297"><ele>1864.3</ele></trkpt>
    <trkpt lat="44.0862" lon="7.403"><ele>1862.9</ele></trkpt>
    <trkpt lat="44.08609" lon="7.40281"><ele>1855.4</ele></trkpt>
    <trkpt lat="44.086" lon="7.40301"><ele>1851.6</ele></trkpt>
    <trkpt lat="44.08582" lon="7.40325"><ele>1847.4</ele></trkpt>
    <trkpt lat="44.08571" lon="7.40322"><ele>1844.7</ele></trkpt>
    <trkpt lat="44.08563" lon="7.4033"><ele>1843.9</ele></trkpt>
    <trkpt lat="44.08554" lon="7.40334"><ele>1842.1</ele></trkpt>
    <trkpt lat="44.08547" lon="7.4033"><ele>1841.3</ele></trkpt>
    <trkpt lat="44.0854" lon="7.40333"><ele>1838.9</ele></trkpt>
    <trkpt lat="44.08536" lon="7.40343"><ele>1838.9</ele></trkpt>
    <trkpt lat="44.0853" lon="7.40348"><ele>1837.1</ele></trkpt>
    <trkpt lat="44.08527" lon="7.40357"><ele>1835.1</ele></trkpt>
    <trkpt lat="44.08519" lon="7.40344"><ele>1832.8</ele></trkpt>
    <trkpt lat="44.08515" lon="7.40344"><ele>1830.5</ele></trkpt>
    <trkpt lat="44.08511" lon="7.40335"><ele>1830.5</ele></trkpt>
    <trkpt lat="44.08511" lon="7.40325"><ele>1826.8</ele></trkpt>
    <trkpt lat="44.08505" lon="7.40323"><ele>1824.6</ele></trkpt>
    <trkpt lat="44.08498" lon="7.40312"><ele>1822.5</ele></trkpt>
    <trkpt lat="44.08485" lon="7.40304"><ele>1818.9</ele></trkpt>
    <trkpt lat="44.08484" lon="7.40294"><ele>1818.9</ele></trkpt>
    <trkpt lat="44.08477" lon="7.40294"><ele>1816.7</ele></trkpt>
    <trkpt lat="44.08479" lon="7.40273"><ele>1811.7</ele></trkpt>
    <trkpt lat="44.08466" lon="7.40268"><ele>1809.1</ele></trkpt>
    <trkpt lat="44.08466" lon="7.40275"><ele>1807.7</ele></trkpt>
    <trkpt lat="44.08464" lon="7.40273"><ele>1804.7</ele></trkpt>
    <trkpt lat="44.0846" lon="7.40286"><ele>1803.2</ele></trkpt>
    <trkpt lat="44.08453" lon="7.40275"><ele>1799.7</ele></trkpt>
    <trkpt lat="44.08452" lon="7.4027"><ele>1799.7</ele></trkpt>
    <trkpt lat="44.08448" lon="7.40269"><ele>1796.9</ele></trkpt>
    <trkpt lat="44.08448" lon="7.40265"><ele>1796.9</ele></trkpt>
    <trkpt lat="44.08451" lon="7.40263"><ele>1796.9</ele></trkpt>
    <trkpt lat="44.08449" lon="7.40257"><ele>1795.8</ele></trkpt>
    <trkpt lat="44.08439" lon="7.40255"><ele>1792.2</ele></trkpt>
    <trkpt lat="44.08446" lon="7.40248"><ele>1791.5</ele></trkpt>
    <trkpt lat="44.08443" lon="7.40245"><ele>1791.5</ele></trkpt>
    <trkpt lat="44.0844" lon="7.40231"><ele>1791.2</ele></trkpt>
    <trkpt lat="44.08439" lon="7.40218"><ele>1791.5</ele></trkpt>
    <trkpt lat="44.08432" lon="7.40213"><ele>1791.4</ele></trkpt>
    <trkpt lat="44.08423" lon="7.40221"><ele>1790.6</ele></trkpt>
    <trkpt lat="44.08415" lon="7.40217"><ele>1789.0</ele></trkpt>
    <trkpt lat="44.08413" lon="7.40228"><ele>1788.2</ele></trkpt>
    <trkpt lat="44.08407" lon="7.40231"><ele>1787.9</ele></trkpt>
    <trkpt lat="44.08403" lon="7.40228"><ele>1787.7</ele></trkpt>
    <trkpt lat="44.08399" lon="7.40219"><ele>1787.7</ele></trkpt>
    <trkpt lat="44.0839" lon="7.40208"><ele>1788.2</ele></trkpt>
    <trkpt lat="44.0838" lon="7.40205"><ele>1788.5</ele></trkpt>
    <trkpt lat="44.08363" lon="7.40207"><ele>1785.2</ele></trkpt>
    <trkpt lat="44.08357" lon="7.40214"><ele>1784.4</ele></trkpt>
    <trkpt lat="44.0835" lon="7.40209"><ele>1783.1</ele></trkpt>
    <trkpt lat="44.08333" lon="7.4021"><ele>1781.5</ele></trkpt>
    <trkpt lat="44.08323" lon="7.40214"><ele>1780.7</ele></trkpt>
    <trkpt lat="44.08294" lon="7.40208"><ele>1777.6</ele></trkpt>
    <trkpt lat="44.08285" lon="7.40203"><ele>1775.9</ele></trkpt>
    <trkpt lat="44.08281" lon="7.40204"><ele>1775.9</ele></trkpt>
    <trkpt lat="44.08265" lon="7.40199"><ele>1774.0</ele></trkpt>
    <trkpt lat="44.08256" lon="7.40204"><ele>1771.8</ele></trkpt>
    <trkpt lat="44.08248" lon="7.40199"><ele>1771.0</ele></trkpt>
    <trkpt lat="44.08241" lon="7.40203"><ele>1769.2</ele></trkpt>
    <trkpt lat="44.08221" lon="7.40202"><ele>1766.3</ele></trkpt>
    <trkpt lat="44.0821" lon="7.40194"><ele>1766.0</ele></trkpt>
    <trkpt lat="44.08195" lon="7.40192"><ele>1765.5</ele></trkpt>
    <trkpt lat="44.08191" lon="7.40195"><ele>1765.1</ele></trkpt>
    <trkpt lat="44.08182" lon="7.40186"><ele>1763.9</ele></trkpt>
    <trkpt lat="44.08176" lon="7.40198"><ele>1762.0</ele></trkpt>
    <trkpt lat="44.08152" lon="7.40196"><ele>1755.9</ele></trkpt>
    <trkpt lat="44.08142" lon="7.40207"><ele>1751.8</ele></trkpt>
    <trkpt lat="44.08133" lon="7.40206"><ele>1750.1</ele></trkpt>
    <trkpt lat="44.08124" lon="7.40211"><ele>1749.0</ele></trkpt>
    <trkpt lat="44.08113" lon="7.40211"><ele>1748.0</ele></trkpt>
    <trkpt lat="44.08102" lon="7.40218"><ele>1745.2</ele></trkpt>
    <trkpt lat="44.08094" lon="7.40214"><ele>1745.2</ele></trkpt>
    <trkpt lat="44.08073" lon="7.40228"><ele>1741.8</ele></trkpt>
    <trkpt lat="44.08064" lon="7.4024"><ele>1740.2</ele></trkpt>
    <trkpt lat="44.08056" lon="7.40241"><ele>1739.6</ele></trkpt>
    <trkpt lat="44.08052" lon="7.40244"><ele>1739.6</ele></trkpt>
    <trkpt lat="44.08047" lon="7.40243"><ele>1738.3</ele></trkpt>
    <trkpt lat="44.08032" lon="7.40255"><ele>1736.2</ele></trkpt>
    <trkpt lat="44.0803" lon="7.40263"><ele>1735.7</ele></trkpt>
    <trkpt lat="44.08023" lon="7.40271"><ele>1735.0</ele></trkpt>
    <trkpt lat="44.08017" lon="7.40271"><ele>1734.5</ele></trkpt>
    <trkpt lat="44.08009" lon="7.40279"><ele>1734.1</ele></trkpt>
    <trkpt lat="44.07982" lon="7.40283"><ele>1732.1</ele></trkpt>
    <trkpt lat="44.07972" lon="7.40281"><ele>1731.0</ele></trkpt>
    <trkpt lat="44.07968" lon="7.40282"><ele>1731.0</ele></trkpt>
    <trkpt lat="44.07961" lon="7.40288"><ele>1729.1</ele></trkpt>
    <trkpt lat="44.07951" lon="7.4029"><ele>1726.6</ele></trkpt>
    <trkpt lat="44.07945" lon="7.40295"><ele>1726.6</ele></trkpt>
    <trkpt lat="44.07933" lon="7.40299"><ele>1725.5</ele></trkpt>
    <trkpt lat="44.07916" lon="7.40284"><ele>1723.6</ele></trkpt>
    <trkpt lat="44.07905" lon="7.40283"><ele>1723.3</ele></trkpt>
    <trkpt lat="44.07872" lon="7.40262"><ele>1721.0</ele></trkpt>
    <trkpt lat="44.07834" lon="7.40274"><ele>1715.2</ele></trkpt>
    <trkpt lat="44.07821" lon="7.40261"><ele>1714.0</ele></trkpt>
    <trkpt lat="44.07811" lon="7.40255"><ele>1712.8</ele></trkpt>
    <trkpt lat="44.07784" lon="7.40214"><ele>1710.7</ele></trkpt>
    <trkpt lat="44.0776" lon="7.40199"><ele>1708.9</ele></trkpt>
    <trkpt lat="44.07742" lon="7.4018"><ele>1708.0</ele></trkpt>
    <trkpt lat="44.07738" lon="7.40171"><ele>1707.9</ele></trkpt>
    <trkpt lat="44.07714" lon="7.40172"><ele>1706.6</ele></trkpt>
    <trkpt lat="44.07695" lon="7.40164"><ele>1705.6</ele></trkpt>
    <trkpt lat="44.07666" lon="7.40167"><ele>1703.0</ele></trkpt>
    <trkpt lat="44.076205" lon="7.40176"><ele>1701.4</ele></trkpt>
    <trkpt lat="44.07575" lon="7.40185"><ele>1699.6</ele></trkpt>
    <trkpt lat="44.07507" lon="7.40168"><ele>1696.4</ele></trkpt>
    <trkpt lat="44.0749" lon="7.40155"><ele>1695.7</ele></trkpt>
    <trkpt lat="44.07479" lon="7.40143"><ele>1694.4</ele></trkpt>
    <trkpt lat="44.0747" lon="7.40143"><ele>1693.6</ele></trkpt>
    <trkpt lat="44.0746" lon="7.40136"><ele>1693.6</ele></trkpt>
    <trkpt lat="44.07435" lon="7.40091"><ele>1691.6</ele></trkpt>
    <trkpt lat="44.07428" lon="7.40088"><ele>1691.5</ele></trkpt>
    <trkpt lat="44.07411" lon="7.40067"><ele>1691.4</ele></trkpt>
    <trkpt lat="44.07406" lon="7.40043"><ele>1690.7</ele></trkpt>
    <trkpt lat="44.07394" lon="7.40004"><ele>1689.2</ele></trkpt>
    <trkpt lat="44.07379" lon="7.39982"><ele>1688.2</ele></trkpt>
    <trkpt lat="44.07366" lon="7.39975"><ele>1687.3</ele></trkpt>
    <trkpt lat="44.07351" lon="7.3997"><ele>1686.4</ele></trkpt>
    <trkpt lat="44.07312" lon="7.39962"><ele>1685.8</ele></trkpt>
    <trkpt lat="44.07303" lon="7.39963"><ele>1685.8</ele></trkpt>
    <trkpt lat="44.07276" lon="7.39975"><ele>1685.1</ele></trkpt>
    <trkpt lat="44.07232" lon="7.39981"><ele>1683.2</ele></trkpt>
    <trkpt lat="44.07227" lon="7.39979"><ele>1683.2</ele></trkpt>
    <trkpt lat="44.07209" lon="7.39966"><ele>1682.3</ele></trkpt>
    <trkpt lat="44.0719" lon="7.39946"><ele>1681.7</ele></trkpt>
    <trkpt lat="44.07172" lon="7.39932"><ele>1679.8</ele></trkpt>
    <trkpt lat="44.0716" lon="7.39928"><ele>1678.8</ele></trkpt>
    <trkpt lat="44.07146" lon="7.39926"><ele>1678.8</ele></trkpt>
    <trkpt lat="44.07101" lon="7.39932"><ele>1675.2</ele></trkpt>
    <trkpt lat="44.07091" lon="7.39928"><ele>1674.1</ele></trkpt>
    <trkpt lat="44.07085" lon="7.39922"><ele>1673.6</ele></trkpt>
    <trkpt lat="44.07065" lon="7.3989"><ele>1670.6</ele></trkpt>
    <trkpt lat="44.07038" lon="7.39864"><ele>1667.0</ele></trkpt>
    <trkpt lat="44.07007" lon="7.39856"><ele>1663.3</ele></trkpt>
    <trkpt lat="44.07004" lon="7.39853"><ele>1663.3</ele></trkpt>
    <trkpt lat="44.07004" lon="7.39826"><ele>1660.5</ele></trkpt>
    <trkpt lat="44.07009" lon="7.39801"><ele>1659.6</ele></trkpt>
    <trkpt lat="44.07008" lon="7.3979"><ele>1659.6</ele></trkpt>
    <trkpt lat="44.06998" lon="7.39772"><ele>1657.0</ele></trkpt>
    <trkpt lat="44.06953" lon="7.39709"><ele>1651.4</ele></trkpt>
    <trkpt lat="44.06921" lon="7.39641"><ele>1645.7</ele></trkpt>
    <trkpt lat="44.06906" lon="7.39627"><ele>1643.2</ele></trkpt>
    <trkpt lat="44.06881" lon="7.39593"><ele>1641.1</ele></trkpt>
    <trkpt lat="44.06852" lon="7.3956"><ele>1638.3</ele></trkpt>
    <trkpt lat="44.06837" lon="7.39537"><ele>1635.8</ele></trkpt>
    <trkpt lat="44.06821" lon="7.39504"><ele>1633.8</ele></trkpt>
    <trkpt lat="44.06814" lon="7.39504"><ele>1631.1</ele></trkpt>
    <trkpt lat="44.06807" lon="7.39496"><ele>1631.1</ele></trkpt>
    <trkpt lat="44.06803" lon="7.39494"><ele>1625.5</ele></trkpt>
    <trkpt lat="44.068" lon="7.39498"><ele>1625.5</ele></trkpt>
    <trkpt lat="44.06792" lon="7.39501"><ele>1623.1</ele></trkpt>
    <trkpt lat="44.06785" lon="7.39491"><ele>1621.5</ele></trkpt>
    <trkpt lat="44.06766" lon="7.39473"><ele>1619.8</ele></trkpt>
    <trkpt lat="44.06758" lon="7.3947"><ele>1619.5</ele></trkpt>
    <trkpt lat="44.06739" lon="7.39477"><ele>1617.9</ele></trkpt>
    <trkpt lat="44.06738" lon="7.3948"><ele>1617.9</ele></trkpt>
    <trkpt lat="44.06733" lon="7.39482"><ele>1617.2</ele></trkpt>
    <trkpt lat="44.06703" lon="7.39474"><ele>1615.6</ele></trkpt>
    <trkpt lat="44.06662" lon="7.39472"><ele>1610.1</ele></trkpt>
    <trkpt lat="44.066" lon="7.39452"><ele>1604.8</ele></trkpt>
    <trkpt lat="44.0657" lon="7.39448"><ele>1603.3</ele></trkpt>
    <trkpt lat="44.06549" lon="7.39432"><ele>1602.7</ele></trkpt>
    <trkpt lat="44.06543" lon="7.39422"><ele>1600.1</ele></trkpt>
    <trkpt lat="44.06537" lon="7.39406"><ele>1600.1</ele></trkpt>
    <trkpt lat="44.06532" lon="7.39362"><ele>1598.0</ele></trkpt>
    <trkpt lat="44.06528" lon="7.39346"><ele>1597.6</ele></trkpt>
    <trkpt lat="44.06519" lon="7.39331"><ele>1597.2</ele></trkpt>
    <trkpt lat="44.06483" lon="7.39292"><ele>1596.7</ele></trkpt>
    <trkpt lat="44.06456" lon="7.39252"><ele>1596.0</ele></trkpt>
    <trkpt lat="44.0644" lon="7.39236"><ele>1596.1</ele></trkpt>
    <trkpt lat="44.06404" lon="7.39222"><ele>1595.7</ele></trkpt>
    <trkpt lat="44.0639" lon="7.39208"><ele>1595.1</ele></trkpt>
    <trkpt lat="44.06367" lon="7.39174"><ele>1592.1</ele></trkpt>
    <trkpt lat="44.06341" lon="7.39124"><ele>1590.0</ele></trkpt>
    <trkpt lat="44.06309" lon="7.39055"><ele>1587.8</ele></trkpt>
    <trkpt lat="44.06301" lon="7.39045"><ele>1587.0</ele></trkpt>
    <trkpt lat="44.06297" lon="7.3904"><ele>1587.0</ele></trkpt>
    <trkpt lat="44.06271" lon="7.39025"><ele>1585.6</ele></trkpt>
    <trkpt lat="44.06246" lon="7.39001"><ele>1583.2</ele></trkpt>
    <trkpt lat="44.06245" lon="7.39042"><ele>1579.0</ele></trkpt>
  </trkseg></trk>
</gpx>